start=new Date('2023-01-15T00:00:00.000Z').valueOf();
sats=[{"INCLINATION":"53.0529","SITE":"AFETR","SEMIMAJOR_AXIS":"6925.355","RCS_SIZE":"LARGE","TIME_SYSTEM":"UTC","EPHEMERIS_TYPE":"0","MEAN_MOTION_DDOT":"0.0000000000000","ECCENTRICITY":"0.00013860","TLE_LINE1":"1 45407U 20019AZ  23014.66607534  .00002607  00000-0  19383-3 0  9991","CLASSIFICATION_TYPE":"U","MEAN_ANOMALY":"269.6324","TLE_LINE2":"2 45407  53.0529 259.2799 0001386  90.4824 269.6324 15.06397798156520","PERIOD":"95.592","DECAY_DATE":null,"MEAN_MOTION":"15.06397798","REV_AT_EPOCH":"15652","PERIAPSIS":"546.260","NORAD_CAT_ID":"45407","LAUNCH_DATE":"2020-03-18","MEAN_ELEMENT_THEORY":"SGP4","OBJECT_ID":"2020-019AZ","FILE":"3744794","ELEMENT_SET_NO":"999","EPOCH":"2023-01-14T15:59:08.909376","BSTAR":"0.00019383000000","RA_OF_ASC_NODE":"259.2799","REF_FRAME":"TEME","ARG_OF_PERICENTER":"90.4824","APOAPSIS":"548.180","OBJECT_NAME":"STARLINK-1275","MEAN_MOTION_DOT":"0.00002607","CENTER_NAME":"EARTH","COUNTRY_CODE":"US","OBJECT_TYPE":"PAYLOAD","GP_ID":"223000255"},{"SEMIMAJOR_AXIS":"6925.334","RCS_SIZE":"LARGE","INCLINATION":"53.0519","SITE":"AFETR","TLE_LINE1":"1 45408U 20019BA  23014.47995578  .00004357  00000-0  31121-3 0  9997","CLASSIFICATION_TYPE":"U","TIME_SYSTEM":"UTC","EPHEMERIS_TYPE":"0","ECCENTRICITY":"0.00017360","MEAN_MOTION_DDOT":"0.0000000000000","PERIOD":"95.592","TLE_LINE2":"2 45408  53.0519 290.1187 0001736  91.5813 268.5375 15.06404758156084","MEAN_ANOMALY":"268.5375","MEAN_MOTION":"15.06404758","DECAY_DATE":null,"PERIAPSIS":"545.997","REV_AT_EPOCH":"15608","LAUNCH_DATE":"2020-03-18","MEAN_ELEMENT_THEORY":"SGP4","NORAD_CAT_ID":"45408","EPOCH":"2023-01-14T11:31:08.179392","ELEMENT_SET_NO":"999","OBJECT_ID":"2020-019BA","FILE":"3745198","REF_FRAME":"TEME","ARG_OF_PERICENTER":"91.5813","APOAPSIS":"548.401","BSTAR":"0.00031121000000","RA_OF_ASC_NODE":"290.1187","OBJECT_NAME":"STARLINK-1278","MEAN_MOTION_DOT":"0.00004357","OBJECT_TYPE":"PAYLOAD","COUNTRY_CODE":"US","GP_ID":"223026765","CENTER_NAME":"EARTH"},{"MEAN_MOTION_DDOT":"0.0000000000000","ECCENTRICITY":"0.00022210","EPHEMERIS_TYPE":"0","TIME_SYSTEM":"UTC","CLASSIFICATION_TYPE":"U","TLE_LINE1":"1 45409U 20019BB  23014.40900628  .00016335  00000-0  11127-2 0  9995","SITE":"AFETR","INCLINATION":"53.0519","RCS_SIZE":"LARGE","SEMIMAJOR_AXIS":"6925.321","LAUNCH_DATE":"2020-03-18","NORAD_CAT_ID":"45409","MEAN_ELEMENT_THEORY":"SGP4","REV_AT_EPOCH":"15649","PERIAPSIS":"545.648","DECAY_DATE":null,"MEAN_MOTION":"15.06408957","TLE_LINE2":"2 45409  53.0519 260.4318 0002221  84.1464 275.9778 15.06408957156490","MEAN_ANOMALY":"275.9778","PERIOD":"95.592","RA_OF_ASC_NODE":"260.4318","BSTAR":"0.00111270000000","APOAPSIS":"548.724","ARG_OF_PERICENTER":"84.1464","REF_FRAME":"TEME","FILE":"3744796","OBJECT_ID":"2020-019BB","EPOCH":"2023-01-14T09:48:58.142592","ELEMENT_SET_NO":"999","CENTER_NAME":"EARTH","GP_ID":"223000102","COUNTRY_CODE":"US","OBJECT_TYPE":"PAYLOAD","MEAN_MOTION_DOT":"0.00016335","OBJECT_NAME":"STARLINK-1282"},{"GP_ID":"223026660","OBJECT_TYPE":"PAYLOAD","COUNTRY_CODE":"US","CENTER_NAME":"EARTH","MEAN_MOTION_DOT":"0.00013214","OBJECT_NAME":"STARLINK-1293","APOAPSIS":"548.017","REF_FRAME":"TEME","ARG_OF_PERICENTER":"90.2125","BSTAR":"0.00090394000000","RA_OF_ASC_NODE":"257.9772","ELEMENT_SET_NO":"999","EPOCH":"2023-01-14T22:54:30.642048","OBJECT_ID":"2020-019BD","FILE":"3745189","REV_AT_EPOCH":"15657","PERIAPSIS":"546.313","NORAD_CAT_ID":"45411","LAUNCH_DATE":"2020-03-18","MEAN_ELEMENT_THEORY":"SGP4","DECAY_DATE":null,"MEAN_MOTION":"15.06415919","PERIOD":"95.591","TLE_LINE2":"2 45411  53.0552 257.9772 0001230  90.2125 269.9005 15.06415919156577","MEAN_ANOMALY":"269.9005","TLE_LINE1":"1 45411U 20019BD  23014.95452132  .00013214  00000-0  90394-3 0  9997","CLASSIFICATION_TYPE":"U","MEAN_MOTION_DDOT":"0.0000000000000","ECCENTRICITY":"0.00012300","TIME_SYSTEM":"UTC","EPHEMERIS_TYPE":"0","RCS_SIZE":"LARGE","SEMIMAJOR_AXIS":"6925.300","SITE":"AFETR","INCLINATION":"53.0552"},{"ECCENTRICITY":"0.00018520","MEAN_MOTION_DDOT":"0.0000000000000","TIME_SYSTEM":"UTC","EPHEMERIS_TYPE":"0","TLE_LINE1":"1 45412U 20019BE  23014.65596072  .00002008  00000-0  15371-3 0  9998","CLASSIFICATION_TYPE":"U","SITE":"AFETR","INCLINATION":"53.0524","RCS_SIZE":"LARGE","SEMIMAJOR_AXIS":"6925.354","PERIAPSIS":"545.936","REV_AT_EPOCH":"15652","NORAD_CAT_ID":"45412","LAUNCH_DATE":"2020-03-18","MEAN_ELEMENT_THEORY":"SGP4","MEAN_MOTION":"15.06398225","DECAY_DATE":null,"TLE_LINE2":"2 45412  53.0524 259.3094 0001852  76.4445 283.6750 15.06398225156526","MEAN_ANOMALY":"283.6750","PERIOD":"95.592","BSTAR":"0.00015371000000","RA_OF_ASC_NODE":"259.3094","APOAPSIS":"548.502","REF_FRAME":"TEME","ARG_OF_PERICENTER":"76.4445","OBJECT_ID":"2020-019BE","FILE":"3744797","ELEMENT_SET_NO":"999","EPOCH":"2023-01-14T15:44:35.006208","CENTER_NAME":"EARTH","GP_ID":"223000301","COUNTRY_CODE":"US","OBJECT_TYPE":"PAYLOAD","MEAN_MOTION_DOT":"0.00002008","OBJECT_NAME":"STARLINK-1296"},{"REF_FRAME":"TEME","ARG_OF_PERICENTER":"100.1142","APOAPSIS":"548.532","BSTAR":"0.00012553000000","RA_OF_ASC_NODE":"257.9848","EPOCH":"2023-01-14T22:49:11.747424","ELEMENT_SET_NO":"999","OBJECT_ID":"2020-019BF","FILE":"3745199","COUNTRY_CODE":"US","OBJECT_TYPE":"PAYLOAD","GP_ID":"223026768","CENTER_NAME":"EARTH","OBJECT_NAME":"STARLINK-1298","MEAN_MOTION_DOT":"0.00001589","CLASSIFICATION_TYPE":"U","TLE_LINE1":"1 45413U 20019BF  23014.95083041  .00001589  00000-0  12553-3 0  9991","TIME_SYSTEM":"UTC","EPHEMERIS_TYPE":"0","ECCENTRICITY":"0.00019130","MEAN_MOTION_DDOT":"0.0000000000000","SEMIMAJOR_AXIS":"6925.342","RCS_SIZE":"LARGE","INCLINATION":"53.0539","SITE":"AFETR","MEAN_MOTION":"15.06402094","DECAY_DATE":null,"PERIAPSIS":"545.882","REV_AT_EPOCH":"15666","MEAN_ELEMENT_THEORY":"SGP4","LAUNCH_DATE":"2020-03-18","NORAD_CAT_ID":"45413","PERIOD":"95.592","TLE_LINE2":"2 45413  53.0539 257.9848 0001913 100.1142 260.0063 15.06402094156662","MEAN_ANOMALY":"260.0063"},{"RCS_SIZE":"LARGE","SEMIMAJOR_AXIS":"6925.358","SITE":"AFETR","INCLINATION":"53.0509","CLASSIFICATION_TYPE":"U","TLE_LINE1":"1 45414U 20019BG  23014.67070646  .00001764  00000-0  13733-3 0  9994","MEAN_MOTION_DDOT":"0.0000000000000","ECCENTRICITY":"0.00020160","TIME_SYSTEM":"UTC","EPHEMERIS_TYPE":"0","PERIOD":"95.592","TLE_LINE2":"2 45414  53.0509 259.2689 0002016  83.1537 276.9681 15.06396768156539","MEAN_ANOMALY":"276.9681","REV_AT_EPOCH":"15653","PERIAPSIS":"545.827","NORAD_CAT_ID":"45414","LAUNCH_DATE":"2020-03-18","MEAN_ELEMENT_THEORY":"SGP4","MEAN_MOTION":"15.06396768","DECAY_DATE":null,"EPOCH":"2023-01-14T16:05:49.038144","ELEMENT_SET_NO":"999","OBJECT_ID":"2020-019BG","FILE":"3744800","APOAPSIS":"548.620","REF_FRAME":"TEME","ARG_OF_PERICENTER":"83.1537","BSTAR":"0.00013733000000","RA_OF_ASC_NODE":"259.2689","MEAN_MOTION_DOT":"0.00001764","OBJECT_NAME":"STARLINK-1309","GP_ID":"223000317","OBJECT_TYPE":"PAYLOAD","COUNTRY_CODE":"US","CENTER_NAME":"EARTH"},{"SITE":"AFETR","INCLINATION":"53.0529","RCS_SIZE":"LARGE","SEMIMAJOR_AXIS":"6925.342","ECCENTRICITY":"0.00013470","MEAN_MOTION_DDOT":"0.0000000000000","EPHEMERIS_TYPE":"0","TIME_SYSTEM":"UTC","TLE_LINE1":"1 45415U 20019BH  23014.96189166  .00002734  00000-0  20232-3 0  9995","CLASSIFICATION_TYPE":"U","MEAN_ANOMALY":"267.6180","TLE_LINE2":"2 45415  53.0529 257.9556 0001347  92.4963 267.6180 15.06402133156593","PERIOD":"95.592","NORAD_CAT_ID":"45415","LAUNCH_DATE":"2020-03-18","MEAN_ELEMENT_THEORY":"SGP4","REV_AT_EPOCH":"15659","PERIAPSIS":"546.274","DECAY_DATE":null,"MEAN_MOTION":"15.06402133","FILE":"3745216","OBJECT_ID":"2020-019BH","ELEMENT_SET_NO":"999","EPOCH":"2023-01-14T23:05:07.439424","RA_OF_ASC_NODE":"257.9556","BSTAR":"0.00020232000000","APOAPSIS":"548.140","ARG_OF_PERICENTER":"92.4963","REF_FRAME":"TEME","MEAN_MOTION_DOT":"0.00002734","OBJECT_NAME":"STARLINK-1316","CENTER_NAME":"EARTH","GP_ID":"223026795","OBJECT_TYPE":"PAYLOAD","COUNTRY_CODE":"US"},{"GP_ID":"223000445","COUNTRY_CODE":"US","OBJECT_TYPE":"PAYLOAD","CENTER_NAME":"EARTH","MEAN_MOTION_DOT":"0.00000020","OBJECT_NAME":"STARLINK-1318","APOAPSIS":"548.253","ARG_OF_PERICENTER":"80.4843","REF_FRAME":"TEME","RA_OF_ASC_NODE":"259.2804","BSTAR":"0.00002021600000","EPOCH":"2023-01-14T15:55:12.240768","ELEMENT_SET_NO":"999","FILE":"3744811","OBJECT_ID":"2020-019BJ","LAUNCH_DATE":"2020-03-18","MEAN_ELEMENT_THEORY":"SGP4","NORAD_CAT_ID":"45416","REV_AT_EPOCH":"15653","PERIAPSIS":"546.211","DECAY_DATE":null,"MEAN_MOTION":"15.06394027","PERIOD":"95.593","TLE_LINE2":"2 45416  53.0529 259.2804 0001474  80.4843 279.6312 15.06394027156536","MEAN_ANOMALY":"279.6312","CLASSIFICATION_TYPE":"U","TLE_LINE1":"1 45416U 20019BJ  23014.66333612  .00000020  00000-0  20216-4 0  9999","ECCENTRICITY":"0.00014740","MEAN_MOTION_DDOT":"0.0000000000000","EPHEMERIS_TYPE":"0","TIME_SYSTEM":"UTC","RCS_SIZE":"LARGE","SEMIMAJOR_AXIS":"6925.367","SITE":"AFETR","INCLINATION":"53.0529"},{"REF_FRAME":"TEME","ARG_OF_PERICENTER":"79.7472","APOAPSIS":"548.301","BSTAR":"0.00010846000000","RA_OF_ASC_NODE":"291.9481","ELEMENT_SET_NO":"999","EPOCH":"2023-01-14T01:41:59.178912","OBJECT_ID":"2020-019BK","FILE":"3743851","OBJECT_TYPE":"PAYLOAD","COUNTRY_CODE":"US","GP_ID":"222979787","CENTER_NAME":"EARTH","OBJECT_NAME":"STARLINK-1286","MEAN_MOTION_DOT":"0.00001334","TLE_LINE1":"1 45417U 20019BK  23014.07082383  .00001334  00000-0  10846-3 0  9997","CLASSIFICATION_TYPE":"U","TIME_SYSTEM":"UTC","EPHEMERIS_TYPE":"0","MEAN_MOTION_DDOT":"0.0000000000000","ECCENTRICITY":"0.00015360","SEMIMAJOR_AXIS":"6925.372","RCS_SIZE":"LARGE","INCLINATION":"53.0552","SITE":"AFETR","MEAN_MOTION":"15.06392295","DECAY_DATE":null,"REV_AT_EPOCH":"15630","PERIAPSIS":"546.173","MEAN_ELEMENT_THEORY":"SGP4","LAUNCH_DATE":"2020-03-18","NORAD_CAT_ID":"45417","PERIOD":"95.593","MEAN_ANOMALY":"280.3690","TLE_LINE2":"2 45417  53.0552 291.9481 0001536  79.7472 280.3690 15.06392295156303"}];
